IRIDIUM 126             
1 42809U 17039G   25067.86239638  .00000496  00000+0  17006-3 0  9993
2 42809  86.4041 188.0897 0002340  95.1502 264.9961 14.34217705403255
IRIDIUM 124             
1 42810U 17039H   25068.18911668  .00000071  00000+0  15121-4 0  9997
2 42810  86.4486 124.7963 0002141  89.9041 270.2405 14.43277653408042
IRIDIUM 128             
1 42811U 17039J   25067.78336437  .00000538  00000+0  18491-3 0  9998
2 42811  86.3981 219.5920 0001945  86.0495 274.0923 14.34218604403278
IRIDIUM 121             
1 42812U 17039K   25067.88142268 -.00000145  00000+0 -58730-4 0  9994
2 42812  86.4043 188.1063 0001928  97.4633 262.6782 14.34217273403131
IRIDIUM 133             
1 42955U 17061A   25067.88484387  .00000088  00000+0  24361-4 0  9995
2 42955  86.3983 219.6557 0002135  90.0500 270.0941 14.34216099388083
IRIDIUM 100             
1 42956U 17061B   25067.87850273  .00000321  00000+0  10772-3 0  9996
2 42956  86.3982 219.5881 0002030  89.6302 270.5127 14.34217813388109
IRIDIUM 122             
1 42957U 17061C   25067.91655648  .00000102  00000+0  29294-4 0  9998
2 42957  86.3982 219.5711 0002313  90.3403 269.8058 14.34216061388093
IRIDIUM 129             
1 42958U 17061D   25067.80239198  .00000506  00000+0  17346-3 0  9997
2 42958  86.3982 219.6808 0002194 103.3100 256.8340 14.34219905388098
